{
  "type": "FeatureCollection",
  "features": [
    {
      "type": "Feature",
      "properties": {
        "norad_id": 41859,
        "name": "GSAT0207 (GALILEO 15)",
        "group": "gnss",
        "lat": 14.771379828918443,
        "lon": 117.01151473941788,
        "alt_km": 23216.737287241165,
        "timestamp": "2025-12-02T06:27:53.256884+00:00",
        "meta_object_name": "GSAT0207 (GALILEO 15)",
        "meta_object_id": "2016-069A",
        "meta_epoch": "2025-11-30T11:31:32.297952",
        "meta_mean_motion": 1.70474248,
        "meta_eccentricity": 0.00020596,
        "meta_inclination": 55.375,
        "meta_ra_of_asc_node": 106.5899,
        "meta_arg_of_pericenter": 325.7449,
        "meta_mean_anomaly": 34.2162,
        "meta_ephemeris_type": 0,
        "meta_classification_type": "U",
        "meta_norad_cat_id": 41859,
        "meta_element_set_no": 999,
        "meta_rev_at_epoch": 5601,
        "meta_bstar": 0,
        "meta_mean_motion_dot": 4.7e-07,
        "meta_mean_motion_ddot": 0,
        "tle_line1": "1 41859U 16069A   25334.48023493  .00000047  00000+0  00000+0 0  9998",
        "tle_line2": "2 41859  55.3750 106.5899 0002059 325.7449  34.2162  1.70474248 56019"
      },
      "geometry": {
        "type": "Point",
        "coordinates": [
          117.01151473941788,
          14.771379828918443
        ]
      }
    },
    {
      "type": "Feature",
      "properties": {
        "norad_id": 41860,
        "name": "GSAT0212 (GALILEO 16)",
        "group": "gnss",
        "lat": 51.52801322421025,
        "lon": -133.84888218378552,
        "alt_km": 23214.11693175523,
        "timestamp": "2025-12-02T06:27:53.256894+00:00",
        "meta_object_name": "GSAT0212 (GALILEO 16)",
        "meta_object_id": "2016-069B",
        "meta_epoch": "2025-12-01T12:10:10.642368",
        "meta_mean_motion": 1.70474441,
        "meta_eccentricity": 0.00022648,
        "meta_inclination": 55.3731,
        "meta_ra_of_asc_node": 106.5568,
        "meta_arg_of_pericenter": 35.1599,
        "meta_mean_anomaly": 324.8229,
        "meta_ephemeris_type": 0,
        "meta_classification_type": "U",
        "meta_norad_cat_id": 41860,
        "meta_element_set_no": 999,
        "meta_rev_at_epoch": 5628,
        "meta_bstar": 0,
        "meta_mean_motion_dot": 3.8e-07,
        "meta_mean_motion_ddot": 0,
        "tle_line1": "1 41860U 16069B   25335.50706762  .00000038  00000+0  00000+0 0  9991",
        "tle_line2": "2 41860  55.3731 106.5568 0002264  35.1599 324.8229  1.70474441 56285"
      },
      "geometry": {
        "type": "Point",
        "coordinates": [
          -133.84888218378552,
          51.52801322421025
        ]
      }
    },
    {
      "type": "Feature",
      "properties": {
        "norad_id": 41861,
        "name": "GSAT0213 (GALILEO 17)",
        "group": "gnss",
        "lat": -46.737172750051066,
        "lon": -26.26902877979087,
        "alt_km": 23223.05930180979,
        "timestamp": "2025-12-02T06:27:53.256905+00:00",
        "meta_object_name": "GSAT0213 (GALILEO 17)",
        "meta_object_id": "2016-069C",
        "meta_epoch": "2025-11-28T08:31:27.530400",
        "meta_mean_motion": 1.70474759,
        "meta_eccentricity": 0.00019722,
        "meta_inclination": 55.3734,
        "meta_ra_of_asc_node": 106.6518,
        "meta_arg_of_pericenter": 283.8228,
        "meta_mean_anomaly": 76.1363,
        "meta_ephemeris_type": 0,
        "meta_classification_type": "U",
        "meta_norad_cat_id": 41861,
        "meta_element_set_no": 999,
        "meta_rev_at_epoch": 5609,
        "meta_bstar": 0,
        "meta_mean_motion_dot": 5.4e-07,
        "meta_mean_motion_ddot": 0,
        "tle_line1": "1 41861U 16069C   25332.35517975  .00000054  00000+0  00000+0 0  9996",
        "tle_line2": "2 41861  55.3734 106.6518 0001972 283.8228  76.1363  1.70474759 56098"
      },
      "geometry": {
        "type": "Point",
        "coordinates": [
          -26.26902877979087,
          -46.737172750051066
        ]
      }
    },
    {
      "type": "Feature",
      "properties": {
        "norad_id": 41862,
        "name": "GSAT0214 (GALILEO 18)",
        "group": "gnss",
        "lat": 22.186786154828933,
        "lon": -89.84462749384352,
        "alt_km": 23221.777879825786,
        "timestamp": "2025-12-02T06:27:53.256916+00:00",
        "meta_object_name": "GSAT0214 (GALILEO 18)",
        "meta_object_id": "2016-069D",
        "meta_epoch": "2025-11-29T16:11:01.864032",
        "meta_mean_motion": 1.70474561,
        "meta_eccentricity": 0.00010374,
        "meta_inclination": 55.3728,
        "meta_ra_of_asc_node": 106.6081,
        "meta_arg_of_pericenter": 291.61,
        "meta_mean_anomaly": 68.3572,
        "meta_ephemeris_type": 0,
        "meta_classification_type": "U",
        "meta_norad_cat_id": 41862,
        "meta_element_set_no": 999,
        "meta_rev_at_epoch": 5624,
        "meta_bstar": 0,
        "meta_mean_motion_dot": 5.1e-07,
        "meta_mean_motion_ddot": 0,
        "tle_line1": "1 41862U 16069D   25333.67432713  .00000051  00000+0  00000+0 0  9996",
        "tle_line2": "2 41862  55.3728 106.6081 0001037 291.6100  68.3572  1.70474561 56248"
      },
      "geometry": {
        "type": "Point",
        "coordinates": [
          -89.84462749384352,
          22.186786154828933
        ]
      }
    },
    {
      "type": "Feature",
      "properties": {
        "norad_id": 42709,
        "name": "SES-15 (WAAS/PRN 133)",
        "group": "gnss",
        "lat": 0.03840446565415781,
        "lon": 39.13879778581987,
        "alt_km": 35788.239733419396,
        "timestamp": "2025-12-02T06:27:53.256927+00:00",
        "meta_object_name": "SES-15 (WAAS/PRN 133)",
        "meta_object_id": "2017-026A",
        "meta_epoch": "2025-12-01T20:45:55.897056",
        "meta_mean_motion": 1.00268136,
        "meta_eccentricity": 3.16e-05,
        "meta_inclination": 0.0202,
        "meta_ra_of_asc_node": 339.5889,
        "meta_arg_of_pericenter": 268.6363,
        "meta_mean_anomaly": 5.0585,
        "meta_ephemeris_type": 0,
        "meta_classification_type": "U",
        "meta_norad_cat_id": 42709,
        "meta_element_set_no": 999,
        "meta_rev_at_epoch": 545,
        "meta_bstar": 0,
        "meta_mean_motion_dot": 8.1e-07,
        "meta_mean_motion_ddot": 0,
        "tle_line1": "1 42709U 17026A   25335.86523029  .00000081  00000+0  00000+0 0  9998",
        "tle_line2": "2 42709   0.0202 339.5889 0000316 268.6363   5.0585  1.00268136  5451"
      },
      "geometry": {
        "type": "Point",
        "coordinates": [
          39.13879778581987,
          0.03840446565415781
        ]
      }
    },
    {
      "type": "Feature",
      "properties": {
        "norad_id": 42738,
        "name": "QZS-2 (QZSS/PRN 194)",
        "group": "gnss",
        "lat": 36.11551584858256,
        "lon": -52.75015204706571,
        "alt_km": 38692.05157162784,
        "timestamp": "2025-12-02T06:27:53.256941+00:00",
        "meta_object_name": "QZS-2 (QZSS/PRN 194)",
        "meta_object_id": "2017-028A",
        "meta_epoch": "2025-11-29T15:03:38.649888",
        "meta_mean_motion": 1.0028652,
        "meta_eccentricity": 0.07597264,
        "meta_inclination": 39.7358,
        "meta_ra_of_asc_node": 246.0747,
        "meta_arg_of_pericenter": 269.3342,
        "meta_mean_anomaly": 280.5316,
        "meta_ephemeris_type": 0,
        "meta_classification_type": "U",
        "meta_norad_cat_id": 42738,
        "meta_element_set_no": 999,
        "meta_rev_at_epoch": 562,
        "meta_bstar": 0,
        "meta_mean_motion_dot": -1.6e-06,
        "meta_mean_motion_ddot": 0,
        "tle_line1": "1 42738U 17028A   25333.62753067 -.00000160  00000+0  00000+0 0  9990",
        "tle_line2": "2 42738  39.7358 246.0747 0759726 269.3342 280.5316  1.00286520  5628"
      },
      "geometry": {
        "type": "Point",
        "coordinates": [
          -52.75015204706571,
          36.11551584858256
        ]
      }
    },
    {
      "type": "Feature",
      "properties": {
        "norad_id": 42917,
        "name": "QZS-3 (QZSS/PRN 199)",
        "group": "gnss",
        "lat": 0.06206823207497025,
        "lon": -64.74368046220505,
        "alt_km": 35784.06134931869,
        "timestamp": "2025-12-02T06:27:53.256957+00:00",
        "meta_object_name": "QZS-3 (QZSS/PRN 199)",
        "meta_object_id": "2017-048A",
        "meta_epoch": "2025-12-01T19:33:18.784800",
        "meta_mean_motion": 1.00265277,
        "meta_eccentricity": 0.0001317,
        "meta_inclination": 0.076,
        "meta_ra_of_asc_node": 225.4123,
        "meta_arg_of_pericenter": 24.2886,
        "meta_mean_anomaly": 241.4926,
        "meta_ephemeris_type": 0,
        "meta_classification_type": "U",
        "meta_norad_cat_id": 42917,
        "meta_element_set_no": 999,
        "meta_rev_at_epoch": 3028,
        "meta_bstar": 0,
        "meta_mean_motion_dot": -3.27e-06,
        "meta_mean_motion_ddot": 0,
        "tle_line1": "1 42917U 17048A   25335.81480075 -.00000327  00000+0  00000+0 0  9995",
        "tle_line2": "2 42917   0.0760 225.4123 0001317  24.2886 241.4926  1.00265277 30280"
      },
      "geometry": {
        "type": "Point",
        "coordinates": [
          -64.74368046220505,
          0.06206823207497025
        ]
      }
    }
  ]
}